{
"type": "FeatureCollection",
"name": "london_custom_groups",
"crs": { "type": "name", "properties": { "name": "urn:ogc:def:crs:OGC:1.3:CRS84" } },
"features": [
{ "type": "Feature", "properties": { "custom_geography_key": "Barking_and_Dagenham_and_Havering", "custom_geography_name": "Barking and Dagenham and Havering", "lad_count": 2 }, "geometry": { "type": "Polygon", "coordinates": [ [ [ 0.158741163472628, 51.512265424911597 ], [ 0.126869821122681, 51.519567160526599 ], [ 0.098144612347847, 51.514958227276203 ], [ 0.098120894043972, 51.5149478077319 ], [ 0.092601548169419, 51.525697996326201 ], [ 0.07274547622173, 51.529274736874697 ], [ 0.068361694633867, 51.5443903891844 ], [ 0.093519764473527, 51.545857893450098 ], [ 0.118901016628217, 51.557370990102903 ], [ 0.131578541181193, 51.571824371111902 ], [ 0.126386612488677, 51.586725220138398 ], [ 0.14820590165784, 51.598968464245701 ], [ 0.138184235471144, 51.6235453960564 ], [ 0.200311572516926, 51.6249357566968 ], [ 0.224087730411796, 51.631737761450097 ], [ 0.252194314453482, 51.617769404891597 ], [ 0.26456196557058, 51.608320660874902 ], [ 0.254008700235285, 51.601598200767398 ], [ 0.269866485133475, 51.599554449812103 ], [ 0.290289733913774, 51.564299392320201 ], [ 0.313035079940716, 51.565818131885003 ], [ 0.334024218329939, 51.540503803766697 ], [ 0.265347272043956, 51.532150265061098 ], [ 0.263682923643184, 51.517869792103397 ], [ 0.253834318187163, 51.517885871583097 ], [ 0.248964774122808, 51.528674028827801 ], [ 0.23717600954358, 51.519334433490599 ], [ 0.241919319161816, 51.507960126895298 ], [ 0.226597286350539, 51.506563242715899 ], [ 0.229965349544136, 51.499365918716499 ], [ 0.214156929096117, 51.496039609880299 ], [ 0.211792634982751, 51.489752992697397 ], [ 0.210575775391054, 51.490247753730003 ], [ 0.187657973831843, 51.487885443468599 ], [ 0.182018252178163, 51.4986276421577 ], [ 0.178514728636713, 51.505298429937298 ], [ 0.16011671259232, 51.511780957095603 ], [ 0.158741163472628, 51.512265424911597 ] ] ] } },
{ "type": "Feature", "properties": { "custom_geography_key": "Barnet", "custom_geography_name": "Barnet", "lad_count": 1 }, "geometry": { "type": "Polygon", "coordinates": [ [ [ -0.181960815257973, 51.668683194697898 ], [ -0.185893323219588, 51.662845344674302 ], [ -0.154731838818758, 51.6555451442674 ], [ -0.129093931888576, 51.632265448032001 ], [ -0.144495116086128, 51.615509011622201 ], [ -0.13870599645949, 51.610185786251698 ], [ -0.151330701481231, 51.597471099047503 ], [ -0.156483326473497, 51.605324577048002 ], [ -0.157130981863992, 51.586191394333902 ], [ -0.17123183297214, 51.572418250553497 ], [ -0.213486677002519, 51.5551909320072 ], [ -0.233417227576263, 51.571982957502797 ], [ -0.251130244193254, 51.570283871610499 ], [ -0.248234179694855, 51.584313731365 ], [ -0.267113115479641, 51.600371967666298 ], [ -0.304449971011893, 51.636348719248197 ], [ -0.25736482156208, 51.6418210814576 ], [ -0.250582589477333, 51.6560573513569 ], [ -0.212135030723747, 51.6613535274521 ], [ -0.203352928676407, 51.670126498057698 ], [ -0.191066699360921, 51.663896704406298 ], [ -0.181960815257973, 51.668683194697898 ] ] ] } },
{ "type": "Feature", "properties": { "custom_geography_key": "Bexley_and_Greenwich", "custom_geography_name": "Bexley and Greenwich", "lad_count": 2 }, "geometry": { "type": "MultiPolygon", "coordinates": [ [ [ [ 0.168813601248937, 51.499362145112499 ], [ 0.169215771233888, 51.498864999572298 ], [ 0.183617006203287, 51.481055159616901 ], [ 0.217618086706926, 51.480474717726402 ], [ 0.221177283091669, 51.478799602006703 ], [ 0.203374621646498, 51.454315457991399 ], [ 0.172844869107023, 51.443287150899202 ], [ 0.164328170821928, 51.428584960395 ], [ 0.155875040956964, 51.430876582321801 ], [ 0.152932433172376, 51.408708481376301 ], [ 0.148869410494427, 51.4084291280153 ], [ 0.107022545170679, 51.414264364161298 ], [ 0.075360212261282, 51.431986651297201 ], [ 0.061705411141948, 51.423700369928802 ], [ 0.02937881550058, 51.441705418829997 ], [ 0.009962165688925, 51.459395037213902 ], [ 0.017962965802973, 51.473830033351803 ], [ -0.015061544957288, 51.468044431914798 ], [ -0.01915237721856, 51.477238878450599 ], [ 0.001970480426538, 51.488510926432703 ], [ 0.00148935785163, 51.501847909271198 ], [ 0.00140327036507, 51.504233823354703 ], [ 0.002002542077534, 51.504359626508403 ], [ 0.006900539940926, 51.501755377330703 ], [ 0.015465596038428, 51.4972002670265 ], [ 0.021572335482926, 51.4939516435443 ], [ 0.058030554201814, 51.4940485832307 ], [ 0.076677470975649, 51.495908101859001 ], [ 0.082016154670327, 51.500445315030099 ], [ 0.090811680098821, 51.507918222646197 ], [ 0.093560946446962, 51.5091495600266 ], [ 0.118676522859303, 51.5113165978631 ], [ 0.120233982272896, 51.511450801646099 ], [ 0.162513688689931, 51.504796290537797 ], [ 0.168813601248937, 51.499362145112499 ] ] ], [ [ [ -0.022015674436631, 51.483672098008498 ], [ -0.01708188383685, 51.4804048672828 ], [ -0.01956450173254, 51.478164948410097 ], [ -0.022015674436631, 51.483672098008498 ] ] ] ] } },
{ "type": "Feature", "properties": { "custom_geography_key": "Brent", "custom_geography_name": "Brent", "lad_count": 1 }, "geometry": { "type": "Polygon", "coordinates": [ [ [ -0.213486677002519, 51.5551909320072 ], [ -0.191467608561554, 51.536292358151599 ], [ -0.196479321959949, 51.527638635643697 ], [ -0.205142405490973, 51.532955900780102 ], [ -0.216020723983129, 51.527920360248999 ], [ -0.228440758153743, 51.530319156284797 ], [ -0.246281570983423, 51.532737509428699 ], [ -0.284241047709167, 51.528912594911603 ], [ -0.282457376588103, 51.538648675970997 ], [ -0.307453582279767, 51.533087057954702 ], [ -0.307735039440404, 51.545878814910203 ], [ -0.335555531666752, 51.556556899124701 ], [ -0.322148244821014, 51.5696770562365 ], [ -0.326642146067183, 51.578775146365203 ], [ -0.304696795432772, 51.587052552390901 ], [ -0.282465247610045, 51.585034966445903 ], [ -0.290405901610672, 51.593543800845197 ], [ -0.267113115479641, 51.600371967666298 ], [ -0.248234179694855, 51.584313731365 ], [ -0.251130244193254, 51.570283871610499 ], [ -0.233417227576263, 51.571982957502797 ], [ -0.213486677002519, 51.5551909320072 ] ] ] } },
{ "type": "Feature", "properties": { "custom_geography_key": "Bromley", "custom_geography_name": "Bromley", "lad_count": 1 }, "geometry": { "type": "Polygon", "coordinates": [ [ [ 0.075360212261282, 51.431986651297201 ], [ 0.107022545170679, 51.414264364161298 ], [ 0.148869410494427, 51.4084291280153 ], [ 0.162384150043184, 51.392490302023297 ], [ 0.147741030714359, 51.392801001808799 ], [ 0.152057738933261, 51.369693704694498 ], [ 0.136958108456318, 51.344174604881204 ], [ 0.118456303441167, 51.344147782327603 ], [ 0.117900333226097, 51.329647100025099 ], [ 0.085029299988601, 51.316023204369401 ], [ 0.085693083414603, 51.293084226556502 ], [ 0.042396497430127, 51.292673046721397 ], [ 0.032909417932232, 51.307520910580202 ], [ 0.015009378467909, 51.291786069142603 ], [ 0.002255311924003, 51.329134834114399 ], [ -0.026766570121141, 51.379375934497602 ], [ -0.036902864195052, 51.377016903217502 ], [ -0.036523498687031, 51.388431536509998 ], [ -0.068201525556868, 51.403488309907601 ], [ -0.078557367172468, 51.4198742113104 ], [ -0.078287681880069, 51.4206047134332 ], [ -0.073907270099848, 51.426212923051899 ], [ -0.030215896380044, 51.425682789675797 ], [ -0.010312080263417, 51.413577793119202 ], [ 0.025458977328269, 51.4289732417637 ], [ 0.036276023931694, 51.422418460994798 ], [ 0.02937881550058, 51.441705418829997 ], [ 0.061705411141948, 51.423700369928802 ], [ 0.075360212261282, 51.431986651297201 ] ] ] } },
{ "type": "Feature", "properties": { "custom_geography_key": "Camden_and_City_of_London", "custom_geography_name": "Camden and City of London", "lad_count": 2 }, "geometry": { "type": "Polygon", "coordinates": [ [ [ -0.109174000436823, 51.509874369079299 ], [ -0.111444375072681, 51.509774698656102 ], [ -0.111567824442113, 51.515335029083097 ], [ -0.129335251259481, 51.513472705153603 ], [ -0.152684835329384, 51.537510753078202 ], [ -0.191467608561554, 51.536292358151599 ], [ -0.213486677002519, 51.5551909320072 ], [ -0.17123183297214, 51.572418250553497 ], [ -0.14239561120072, 51.569106001966802 ], [ -0.122563726204788, 51.530753113421198 ], [ -0.105290341558648, 51.518554857832299 ], [ -0.085232645096576, 51.520348396265902 ], [ -0.078529105704302, 51.521511917961497 ], [ -0.080182948054445, 51.5068722649455 ], [ -0.109174000436823, 51.509874369079299 ] ] ] } },
{ "type": "Feature", "properties": { "custom_geography_key": "Croydon", "custom_geography_name": "Croydon", "lad_count": 1 }, "geometry": { "type": "Polygon", "coordinates": [ [ [ -0.078557367172468, 51.4198742113104 ], [ -0.068201525556868, 51.403488309907601 ], [ -0.036523498687031, 51.388431536509998 ], [ -0.036902864195052, 51.377016903217502 ], [ -0.026766570121141, 51.379375934497602 ], [ 0.002255311924003, 51.329134834114399 ], [ -0.03792008544979, 51.338724743293199 ], [ -0.051307224761096, 51.322452276556497 ], [ -0.07891302057719, 51.319769938729799 ], [ -0.09122374186729, 51.301475229057303 ], [ -0.124301850029936, 51.286790403161099 ], [ -0.137245888383678, 51.300763842138998 ], [ -0.155317700345265, 51.301274393746603 ], [ -0.156523624561657, 51.321485286251999 ], [ -0.14557670392873, 51.323492954078297 ], [ -0.144576133845834, 51.342087665178198 ], [ -0.116842029977448, 51.345762859090399 ], [ -0.134321993903791, 51.390847066178303 ], [ -0.124139637510634, 51.397609567957097 ], [ -0.127724902236922, 51.412316330601598 ], [ -0.112631773723551, 51.423244268600399 ], [ -0.078557367172468, 51.4198742113104 ] ] ] } },
{ "type": "Feature", "properties": { "custom_geography_key": "Ealing", "custom_geography_name": "Ealing", "lad_count": 1 }, "geometry": { "type": "Polygon", "coordinates": [ [ [ -0.246281570983423, 51.532737509428699 ], [ -0.253040909966186, 51.501422334223903 ], [ -0.267676633366511, 51.4939192512037 ], [ -0.280772402092, 51.502847527375302 ], [ -0.294015372580519, 51.501559326151401 ], [ -0.311911168808834, 51.491971457659197 ], [ -0.350619148399036, 51.499106657078102 ], [ -0.371851047191365, 51.490476154912798 ], [ -0.406918399587474, 51.499666397135996 ], [ -0.3761902207783, 51.5288173306636 ], [ -0.419452371528133, 51.540332325485799 ], [ -0.395285532006663, 51.542551632821201 ], [ -0.398706173814887, 51.547897359714497 ], [ -0.377843376019978, 51.554977063510201 ], [ -0.335555531666752, 51.556556899124701 ], [ -0.307735039440404, 51.545878814910203 ], [ -0.307453582279767, 51.533087057954702 ], [ -0.282457376588103, 51.538648675970997 ], [ -0.284241047709167, 51.528912594911603 ], [ -0.246281570983423, 51.532737509428699 ] ] ] } },
{ "type": "Feature", "properties": { "custom_geography_key": "Enfield", "custom_geography_name": "Enfield", "lad_count": 1 }, "geometry": { "type": "Polygon", "coordinates": [ [ [ -0.011918675972722, 51.6808778146614 ], [ -0.012259687054712, 51.646228696271898 ], [ -0.041390716789704, 51.605646784415903 ], [ -0.13870599645949, 51.610185786251698 ], [ -0.144495116086128, 51.615509011622201 ], [ -0.129093931888576, 51.632265448032001 ], [ -0.154731838818758, 51.6555451442674 ], [ -0.185893323219588, 51.662845344674302 ], [ -0.181960815257973, 51.668683194697898 ], [ -0.163493271974568, 51.688115078747799 ], [ -0.105779139838692, 51.691875644200699 ], [ -0.011918675972722, 51.6808778146614 ] ] ] } },
{ "type": "Feature", "properties": { "custom_geography_key": "Hackney_and_Newham", "custom_geography_name": "Hackney and Newham", "lad_count": 2 }, "geometry": { "type": "MultiPolygon", "coordinates": [ [ [ [ 0.090811680098821, 51.507918222646197 ], [ 0.092114129659729, 51.509024548983703 ], [ 0.093560946446962, 51.5091495600266 ], [ 0.090811680098821, 51.507918222646197 ] ] ], [ [ [ 0.07274547622173, 51.529274736874697 ], [ 0.092601548169419, 51.525697996326201 ], [ 0.098120894043972, 51.5149478077319 ], [ 0.065781675093208, 51.500732722706999 ], [ 0.060385612446722, 51.4983591287587 ], [ 0.020249919441287, 51.499419094232103 ], [ 0.017577333724112, 51.5015721542376 ], [ 0.015724804355067, 51.5030644308221 ], [ 0.009187310196193, 51.508329630054099 ], [ 0.008127061402262, 51.508103345273597 ], [ 0.005703594735044, 51.507586068404301 ], [ -0.021129061565773, 51.536508168925202 ], [ -0.016549676137034, 51.543329866782997 ], [ -0.062434445954616, 51.535532497537197 ], [ -0.078529105704302, 51.521511917961497 ], [ -0.085232645096576, 51.520348396265902 ], [ -0.097032336919264, 51.533003339418102 ], [ -0.076559086972201, 51.5478395014255 ], [ -0.104373934561655, 51.564766657584897 ], [ -0.097741752628111, 51.573623469155301 ], [ -0.061158572066501, 51.577786036197502 ], [ -0.047079099058099, 51.562592110487799 ], [ -0.028390534944039, 51.561020250037103 ], [ -0.017174335251558, 51.551577283719801 ], [ 0.020474204165771, 51.556128125074501 ], [ 0.046272611011731, 51.554829939768297 ], [ 0.050344992489226, 51.564021770310298 ], [ 0.068361694633867, 51.5443903891844 ], [ 0.07274547622173, 51.529274736874697 ] ] ] ] } },
{ "type": "Feature", "properties": { "custom_geography_key": "Haringey_and_Islington", "custom_geography_name": "Haringey and Islington", "lad_count": 2 }, "geometry": { "type": "Polygon", "coordinates": [ [ [ -0.076559086972201, 51.5478395014255 ], [ -0.097032336919264, 51.533003339418102 ], [ -0.085232645096576, 51.520348396265902 ], [ -0.105290341558648, 51.518554857832299 ], [ -0.122563726204788, 51.530753113421198 ], [ -0.14239561120072, 51.569106001966802 ], [ -0.17123183297214, 51.572418250553497 ], [ -0.157130981863992, 51.586191394333902 ], [ -0.156483326473497, 51.605324577048002 ], [ -0.151330701481231, 51.597471099047503 ], [ -0.13870599645949, 51.610185786251698 ], [ -0.041390716789704, 51.605646784415903 ], [ -0.061158572066501, 51.577786036197502 ], [ -0.097741752628111, 51.573623469155301 ], [ -0.104373934561655, 51.564766657584897 ], [ -0.076559086972201, 51.5478395014255 ] ] ] } },
{ "type": "Feature", "properties": { "custom_geography_key": "Hounslow_and_Richmond_upon_Thames", "custom_geography_name": "Hounslow and Richmond upon Thames", "lad_count": 2 }, "geometry": { "type": "Polygon", "coordinates": [ [ [ -0.232733298874365, 51.472510758717803 ], [ -0.233290023158623, 51.463971745614899 ], [ -0.256187822981795, 51.462834074768097 ], [ -0.259111198831886, 51.454953488951801 ], [ -0.24159865877434, 51.443117985084697 ], [ -0.254066366518792, 51.4372878642506 ], [ -0.286559992341689, 51.420185492770798 ], [ -0.290616410459767, 51.428990164330102 ], [ -0.310650913997973, 51.4322095269603 ], [ -0.308788746091744, 51.401916882776199 ], [ -0.317697879461912, 51.393667079332403 ], [ -0.327817849624804, 51.3918371417138 ], [ -0.359139332144209, 51.411903160417303 ], [ -0.383350026681253, 51.408538295089201 ], [ -0.39131707100993, 51.422315411876703 ], [ -0.45646755928571, 51.438106679685902 ], [ -0.458723754309907, 51.456341740020797 ], [ -0.443949638873137, 51.453290591353898 ], [ -0.41113166386798, 51.469887513853202 ], [ -0.41691849392387, 51.4824764802677 ], [ -0.406918399587474, 51.499666397135996 ], [ -0.371851047191365, 51.490476154912798 ], [ -0.350619148399036, 51.499106657078102 ], [ -0.311911168808834, 51.491971457659197 ], [ -0.294015372580519, 51.501559326151401 ], [ -0.280772402092, 51.502847527375302 ], [ -0.267676633366511, 51.4939192512037 ], [ -0.253040909966186, 51.501422334223903 ], [ -0.243366811301174, 51.487891725771703 ], [ -0.229959225072846, 51.4879286511243 ], [ -0.221737464202912, 51.472332313917804 ], [ -0.232733298874365, 51.472510758717803 ] ] ] } },
{ "type": "Feature", "properties": { "custom_geography_key": "Kensington_and_Chelsea_and_Hammersmith_and_Fulham", "custom_geography_name": "Kensington and Chelsea and Hammersmith and Fulham", "lad_count": 2 }, "geometry": { "type": "Polygon", "coordinates": [ [ [ -0.190529144136711, 51.464275080423697 ], [ -0.221737464202912, 51.472332313917804 ], [ -0.229959225072846, 51.4879286511243 ], [ -0.243366811301174, 51.487891725771703 ], [ -0.253040909966186, 51.501422334223903 ], [ -0.246281570983423, 51.532737509428699 ], [ -0.228440758153743, 51.530319156284797 ], [ -0.216020723983129, 51.527920360248999 ], [ -0.179521115667993, 51.497766113668099 ], [ -0.158457848304668, 51.502226196896103 ], [ -0.149806087718761, 51.484545995712701 ], [ -0.177749617256423, 51.477540371030898 ], [ -0.190529144136711, 51.464275080423697 ] ] ] } },
{ "type": "Feature", "properties": { "custom_geography_key": "Lambeth", "custom_geography_name": "Lambeth", "lad_count": 1 }, "geometry": { "type": "Polygon", "coordinates": [ [ [ -0.078287681880069, 51.4206047134332 ], [ -0.078557367172468, 51.4198742113104 ], [ -0.112631773723551, 51.423244268600399 ], [ -0.127724902236922, 51.412316330601598 ], [ -0.148064535784428, 51.412870112471602 ], [ -0.140358848161646, 51.419263703584697 ], [ -0.135888414709844, 51.441975892495797 ], [ -0.143610577448564, 51.441838961720599 ], [ -0.151211614592545, 51.465861155225603 ], [ -0.129471243203922, 51.4858909429731 ], [ -0.111444375072681, 51.509774698656102 ], [ -0.109174000436823, 51.509874369079299 ], [ -0.108224646364217, 51.480306788272301 ], [ -0.090039492650524, 51.466065594251901 ], [ -0.101383006818995, 51.451923977481201 ], [ -0.078287681880069, 51.4206047134332 ] ] ] } },
{ "type": "Feature", "properties": { "custom_geography_key": "Lewisham_and_Southwark", "custom_geography_name": "Lewisham and Southwark", "lad_count": 2 }, "geometry": { "type": "Polygon", "coordinates": [ [ [ -0.01956450173254, 51.478164948410097 ], [ -0.02267493896056, 51.475358227986597 ], [ -0.01915237721856, 51.477238878450599 ], [ -0.015061544957288, 51.468044431914798 ], [ 0.017962965802973, 51.473830033351803 ], [ 0.009962165688925, 51.459395037213902 ], [ 0.02937881550058, 51.441705418829997 ], [ 0.036276023931694, 51.422418460994798 ], [ 0.025458977328269, 51.4289732417637 ], [ -0.010312080263417, 51.413577793119202 ], [ -0.030215896380044, 51.425682789675797 ], [ -0.073907270099848, 51.426212923051899 ], [ -0.078287681880069, 51.4206047134332 ], [ -0.101383006818995, 51.451923977481201 ], [ -0.090039492650524, 51.466065594251901 ], [ -0.108224646364217, 51.480306788272301 ], [ -0.109174000436823, 51.509874369079299 ], [ -0.080182948054445, 51.5068722649455 ], [ -0.072975928236025, 51.505027587423498 ], [ -0.068368751104445, 51.503020141243503 ], [ -0.062953951259199, 51.500660378504797 ], [ -0.053873462638143, 51.502780453836102 ], [ -0.035889674737337, 51.506976595377303 ], [ -0.03475025029599, 51.502461010109599 ], [ -0.03237822923314, 51.493057668418999 ], [ -0.032295456068025, 51.492975199358902 ], [ -0.024829254355396, 51.485534991057101 ], [ -0.022015674436631, 51.483672098008498 ], [ -0.01956450173254, 51.478164948410097 ] ] ] } },
{ "type": "Feature", "properties": { "custom_geography_key": "Merton_Kingston_upon_Thames_and_Sutton", "custom_geography_name": "Merton Kingston upon Thames and Sutton", "lad_count": 3 }, "geometry": { "type": "Polygon", "coordinates": [ [ [ -0.116842029977448, 51.345762859090399 ], [ -0.144576133845834, 51.342087665178198 ], [ -0.14557670392873, 51.323492954078297 ], [ -0.156523624561657, 51.321485286251999 ], [ -0.197319340394251, 51.343595159866702 ], [ -0.220841625332819, 51.3298019706872 ], [ -0.229822682346971, 51.336522804565497 ], [ -0.217264425534208, 51.343387090802203 ], [ -0.222736428311044, 51.357086072360403 ], [ -0.245382434157475, 51.366889294327898 ], [ -0.245027866580531, 51.3800591554688 ], [ -0.260996427671818, 51.379593950965202 ], [ -0.288469327282705, 51.362127887138698 ], [ -0.30618917299884, 51.335075564703899 ], [ -0.330655551869037, 51.329009638114002 ], [ -0.330510146371957, 51.348419435144699 ], [ -0.307365443633207, 51.378383545088603 ], [ -0.317697879461912, 51.393667079332403 ], [ -0.308788746091744, 51.401916882776199 ], [ -0.310650913997973, 51.4322095269603 ], [ -0.290616410459767, 51.428990164330102 ], [ -0.286559992341689, 51.420185492770798 ], [ -0.254066366518792, 51.4372878642506 ], [ -0.251085089413751, 51.432557791518001 ], [ -0.190026527777626, 51.441464584023301 ], [ -0.181939169287309, 51.424731271428897 ], [ -0.140358848161646, 51.419263703584697 ], [ -0.148064535784428, 51.412870112471602 ], [ -0.127724902236922, 51.412316330601598 ], [ -0.124139637510634, 51.397609567957097 ], [ -0.134321993903791, 51.390847066178303 ], [ -0.116842029977448, 51.345762859090399 ] ] ] } },
{ "type": "Feature", "properties": { "custom_geography_key": "Redbridge_and_Waltham_Forest", "custom_geography_name": "Redbridge and Waltham Forest", "lad_count": 2 }, "geometry": { "type": "Polygon", "coordinates": [ [ [ 0.14820590165784, 51.598968464245701 ], [ 0.126386612488677, 51.586725220138398 ], [ 0.131578541181193, 51.571824371111902 ], [ 0.118901016628217, 51.557370990102903 ], [ 0.093519764473527, 51.545857893450098 ], [ 0.068361694633867, 51.5443903891844 ], [ 0.050344992489226, 51.564021770310298 ], [ 0.046272611011731, 51.554829939768297 ], [ 0.020474204165771, 51.556128125074501 ], [ -0.017174335251558, 51.551577283719801 ], [ -0.028390534944039, 51.561020250037103 ], [ -0.047079099058099, 51.562592110487799 ], [ -0.061158572066501, 51.577786036197502 ], [ -0.041390716789704, 51.605646784415903 ], [ -0.012259687054712, 51.646228696271898 ], [ 0.022719541696959, 51.6411154928849 ], [ 0.021819035344359, 51.628832786110401 ], [ 0.072867372178107, 51.604665522412198 ], [ 0.138184235471144, 51.6235453960564 ], [ 0.14820590165784, 51.598968464245701 ] ] ] } },
{ "type": "Feature", "properties": { "custom_geography_key": "Tower_Hamlets", "custom_geography_name": "Tower Hamlets", "lad_count": 1 }, "geometry": { "type": "MultiPolygon", "coordinates": [ [ [ [ 0.00140327036507, 51.504233823354703 ], [ 0.001386920906859, 51.504686916596299 ], [ 0.002002542077534, 51.504359626508403 ], [ 0.00140327036507, 51.504233823354703 ] ] ], [ [ [ 0.005703594735044, 51.507586068404301 ], [ -0.005773790655895, 51.505135403313197 ], [ -0.006247927438962, 51.5019797595195 ], [ -0.008484307377134, 51.487088896892402 ], [ -0.010687503007873, 51.487046760320702 ], [ -0.025374375946683, 51.490300319342701 ], [ -0.028276719154752, 51.5023520769358 ], [ -0.02985621142275, 51.508908205793297 ], [ -0.045493420657086, 51.509394934472603 ], [ -0.059620458879845, 51.502875734603499 ], [ -0.059694058109782, 51.502841761533801 ], [ -0.059843036375227, 51.502879416325698 ], [ -0.079369188957907, 51.5078126901602 ], [ -0.072975928236025, 51.505027587423498 ], [ -0.080182948054445, 51.5068722649455 ], [ -0.078529105704302, 51.521511917961497 ], [ -0.062434445954616, 51.535532497537197 ], [ -0.016549676137034, 51.543329866782997 ], [ -0.021129061565773, 51.536508168925202 ], [ 0.005703594735044, 51.507586068404301 ] ] ] ] } },
{ "type": "Feature", "properties": { "custom_geography_key": "Wandsworth", "custom_geography_name": "Wandsworth", "lad_count": 1 }, "geometry": { "type": "Polygon", "coordinates": [ [ [ -0.140358848161646, 51.419263703584697 ], [ -0.181939169287309, 51.424731271428897 ], [ -0.190026527777626, 51.441464584023301 ], [ -0.251085089413751, 51.432557791518001 ], [ -0.254066366518792, 51.4372878642506 ], [ -0.24159865877434, 51.443117985084697 ], [ -0.259111198831886, 51.454953488951801 ], [ -0.256187822981795, 51.462834074768097 ], [ -0.233290023158623, 51.463971745614899 ], [ -0.232733298874365, 51.472510758717803 ], [ -0.221737464202912, 51.472332313917804 ], [ -0.190529144136711, 51.464275080423697 ], [ -0.177749617256423, 51.477540371030898 ], [ -0.149806087718761, 51.484545995712701 ], [ -0.129471243203922, 51.4858909429731 ], [ -0.151211614592545, 51.465861155225603 ], [ -0.143610577448564, 51.441838961720599 ], [ -0.135888414709844, 51.441975892495797 ], [ -0.140358848161646, 51.419263703584697 ] ] ] } },
{ "type": "Feature", "properties": { "custom_geography_key": "Westminster", "custom_geography_name": "Westminster", "lad_count": 1 }, "geometry": { "type": "Polygon", "coordinates": [ [ [ -0.111567824442113, 51.515335029083097 ], [ -0.111444375072681, 51.509774698656102 ], [ -0.129471243203922, 51.4858909429731 ], [ -0.149806087718761, 51.484545995712701 ], [ -0.158457848304668, 51.502226196896103 ], [ -0.179521115667993, 51.497766113668099 ], [ -0.216020723983129, 51.527920360248999 ], [ -0.205142405490973, 51.532955900780102 ], [ -0.196479321959949, 51.527638635643697 ], [ -0.191467608561554, 51.536292358151599 ], [ -0.152684835329384, 51.537510753078202 ], [ -0.129335251259481, 51.513472705153603 ], [ -0.111567824442113, 51.515335029083097 ] ] ] } }
]
}
